C/2018 R4 (Fuls),e,11.6835,298.4377,345.2820,330.6903,0.0001639,0.99481687,0.0000,03/03.6338/2018,2000,g 14.0,4.0
# From MPC114603
C/2018 R5 (Lemmon),e,103.7481,171.1277,178.0513,22.78387,0.0090628,0.84097318,6.9874,02/19.0/2021,2000,g 11.5,4.0
# From MPC119996
C/2018 U1 (Lemmon),h,11/02.8611/2021,108.2977,75.4803,180.4383,1.001208,4.993129,2000,5.0,4.0
# From MPC114604
C/2018 V1 (Machholz-Fujikawa-Iwamoto),h,12/03.2829/2018,144.0532,128.8771,88.8419,1.000349,0.386236,2000,12.0,4.0
# From MPC115884
C/2018 V2 (ATLAS),e,159.1672,357.0789,318.9528,25.15424,0.0078125,0.90149028,6.3723,02/19.0/2021,2000,g 15.0,4.0
# From MPC114604
P/2018 VN2 (Leonard),e,18.2490,226.5119,138.7410,4.064647,0.1202735,0.47848894,118.9860,02/19.0/2021,2000,g 15.0,4.0
# From MPC117070
A/2018 V3,e,164.9782,308.6557,3.5210,121.8665,0.0007326,0.98900148,0.0000,09/08.6790/2019,2000,g 15.7,2.0
# From MPC114604
C/2018 V4 (Africano),e,69.0033,78.3647,359.9435,205.9609,0.0003334,0.98447670,0.0000,03/01.4178/2019,2000,g 12.5,4.0
# From MPC114604
P/2018 V5 (Trujillo-Sheppard),e,10.5853,171.2893,260.6954,8.954134,0.0367848,0.47461991,32.0097,02/19.0/2021,2000,g 12.5,4.0
# From MPC115884
C/2018 W1 (Catalina),e,83.2672,233.5944,251.2487,21.71114,0.0097427,0.93732960,6.3258,02/19.0/2021,2000,g 15.7,2.0
# From MPC119996
C/2018 W2 (Africano),h,09/05.6438/2019,116.6174,181.8490,157.9747,1.000428,1.455092,2000,9.5,4.0
# From MPC119996
C/2018 X2 (Fitzsimmons),e,23.0694,340.8279,162.0562,147.4003,0.0005508,0.98557300,0.0000,07/08.4176/2019,2000,g 12.0,4.0
# From MPC114604
C/2018 X3 (PANSTARRS),e,43.3713,78.9064,359.7558,12.37760,0.0226334,0.78215842,17.6865,02/19.0/2021,2000,g 14.5,4.0
# From MPC118842
C/2018 Y1 (Iwamoto),e,160.3995,147.5122,358.0214,140.8373,0.0005897,0.99087555,0.0000,02/07.0039/2019,2000,g 11.5,4.0
# From MPC114605
P/2018 Y2 (Africano),e,11.6827,297.2657,162.3539,7.461992,0.0483528,0.47862108,37.6804,02/19.0/2021,2000,g 11.5,4.0
# From MPC114605
P/2019 A1 (PANSTARRS),e,13.7442,312.3033,150.7877,5.122899,0.0850023,0.56833641,73.2998,02/19.0/2021,2000,g 16.0,4.0
# From MPC114605
P/2019 A2 (ATLAS),e,14.8606,139.4692,324.0594,5.722712,0.0719948,0.38134214,59.1414,02/19.0/2021,2000,g 10.5,4.0
# From MPC114605
P/2019 A3 (PANSTARRS),e,15.3673,31.3011,325.4933,3.146830,0.1765608,0.26556133,164.5073,02/19.0/2021,2000,g 16.0,4.0
# From MPC114605
P/2019 A4 (PANSTARRS),e,13.3203,119.2998,341.8188,2.614977,0.2330786,0.08843261,188.2369,02/19.0/2021,2000,g 15.0,4.0
# From MPC118842
C/2019 A5 (PANSTARRS),e,67.5582,146.6267,355.9703,21.58433,0.0098287,0.70706783,6.1078,02/19.0/2021,2000,g  9.5,4.0
# From MPC114605
P/2019 A6 (Lemmon-PANSTARRS),e,33.2308,280.2672,156.2100,5.362787,0.0793630,0.63898049,71.8134,02/19.0/2021,2000,g 16.0,4.0
# From MPC114605
P/2019 A7 (PANSTARRS),e,17.7746,280.5226,119.2581,3.185665,0.1733421,0.16113320,197.4230,02/19.0/2021,2000,g 13.5,4.0
# From MPC115884
P/2019 A8 (PANSTARRS),e,3.1599,127.6436,22.5480,3.346379,0.1610057,0.46238458,140.5181,02/19.0/2021,2000,g 16.0,4.0
# From MPC118842
C/2019 A9 (PANSTARRS),e,84.1851,278.3849,237.9579,39.72005,0.0039372,0.96397957,2.2581,02/19.0/2021,2000,g 15.0,4.0
# From MPC114606
C/2019 B1 (Africano),e,123.3637,290.4353,174.8432,145.6706,0.0005606,0.98903928,0.0000,03/19.7370/2019,2000,g 16.0,4.0
# From MPC115885
P/2019 B2 (Groeller),e,16.8453,176.2461,359.3731,3.865643,0.1296795,0.37317221,80.4839,02/19.0/2021,2000,g 14.5,4.0
# From MPC115885
C/2019 B3 (PANSTARRS),h,01/20.0147/2021,66.5388,358.4312,263.9054,1.002402,6.823634,2000,5.5,4.0
# From MPEC 2020-AA5
C/2019 C1,e,36.0258,212.3880,319.1890,746.5312,0.0000483,0.99118445,0.0000,05/05.5949/2020,2000,g 10.0,4.0
# From MPC118842
C/2019 D1 (Flewelling),e,34.0790,231.7158,70.5274,141.6336,0.0005847,0.98885203,0.0000,05/11.8781/2019,2000,g 13.0,4.0
# From MPC119997
C/2019 E3 (ATLAS),h,11/12.6520/2023,84.2929,347.2433,280.6138,1.003837,10.314832,2000,2.5,4.0
# From MPC119997
C/2019 F1 (ATLAS-Africano),h,06/22.7941/2021,54.1754,38.7259,251.1215,1.003696,3.595613,2000,5.5,4.0
# From MPC119997
C/2019 F2 (ATLAS),e,19.2034,175.6746,11.3294,16.73321,0.0143991,0.86623728,7.6146,02/19.0/2021,2000,g 12.0,4.0
# From MPEC 2020-AA5
A/2019 G2,e,159.2072,208.1512,82.6328,660.3642,0.0000581,0.99653096,0.0000,12/09.9861/2019,2000,g 16.5,2.0
# From MPC118094
A/2019 G4,h,09/16.0521/2018,138.3867,130.4642,287.8834,1.001587,5.858264,2000,13.0,2.0
# From MPC114607
P/2019 GG21 (PANSTARRS),e,6.0839,340.5767,208.5208,7.473695,0.0482393,0.47295961,31.3599,02/19.0/2021,2000,g 12.0,4.0
# From MPC115885
C/2019 H1 (NEOWISE),e,104.5694,269.1969,19.3244,235.6845,0.0002724,0.99216773,0.0000,04/27.8087/2019,2000,g 15.5,4.0
# From MPC118842
C/2019 J1 (Lemmon),e,24.5505,98.0914,167.7878,69.67458,0.0016947,0.96441013,1.1555,02/19.0/2021,2000,g 12.0,4.0
# From MPC115885
C/2019 J2 (Palomar),e,105.1540,25.4815,98.7160,675.5662,0.0000561,0.99744321,0.0000,07/19.7042/2019,2000,g 13.0,4.0
# From MPC117071
C/2019 J3 (ATLAS),h,08/01.9663/2019,131.4112,270.5268,16.5865,1.000282,2.374344,2000,13.5,4.0
# From MPC117071
C/2019 JU6 (ATLAS),e,148.3053,21.7445,94.9090,339.2664,0.0001577,0.99396927,0.0000,05/31.9015/2019,2000,g 14.5,4.0
# From MPC119997
C/2019 K1 (ATLAS),h,02/12.9885/2020,87.1407,73.3774,265.7129,1.000040,2.012663,2000,10.0,4.0
# From MPC119997
C/2019 K4 (Ye),e,105.3016,180.1616,139.7735,1502,0.0000169,0.99849486,0.0000,06/16.2899/2019,2000,g 12.5,4.0
# From MPC119997
C/2019 K5 (Young),e,15.3153,177.1593,174.9744,158.1239,0.0004957,0.98712703,0.0000,06/22.8781/2019,2000,g 13.0,4.0
# From MPC xxxxx
C/2019 K6 (PANSTARRS),e,132.3784,42.9449,187.6308,1724,0.0000138,0.99772097,0.0000,05/20.2504/2020,2000,g 11.5,4.0
# From MPC118095
C/2019 K7 (Smith),e,103.5399,307.9296,27.3130,29237,0.0000002,0.99984694,0.0000,06/17.0015/2020,2000,g  6.2,4.0
# From MPC119997
C/2019 K8 (ATLAS),e,93.2203,291.0451,85.3730,2374,0.0000085,0.99865400,0.0000,07/21.3979/2019,2000,g 11.5,4.0
# From MPC118095
C/2019 L1 (PANSTARRS),e,9.9925,254.4132,49.9595,9.836468,0.0319481,0.70604729,17.8151,02/19.0/2021,2000,g 13.5,4.0
# From MPC115886
C/2019 L2 (NEOWISE),e,152.1839,12.5786,18.7472,24.84972,0.0079565,0.93478661,5.4838,02/19.0/2021,2000,g 16.0,4.0
# From MPC119997
C/2019 L3 (ATLAS),h,01/09.6694/2022,48.3659,290.7860,171.6300,1.001067,3.554087,2000,4.5,4.0
# From MPEC 2020-K19
P/2019 LM4 (Palomar),e,36.3894,72.8599,68.3928,5.716087,0.0721200,0.58488257,44.1274,02/19.0/2021,2000,g  9.5,4.0
# From MPC118095
C/2019 LB7 (Kleyna),e,164.2911,3.8954,336.4844,34.76810,0.0048076,0.92856866,3.3417,02/19.0/2021,2000,g 17.0,4.0
# From MPC118843
P/2019 M2 (ATLAS),e,12.2821,307.5963,332.5691,3.026758,0.1871706,0.64831485,113.6793,02/19.0/2021,2000,g 21.2,4.0
# From MPC118095
C/2019 M3 (ATLAS),h,01/02.6400/2019,99.4678,154.9018,87.9248,1.001156,2.418895,2000,12.2,4.0
# From MPC119997
C/2019 N1 (ATLAS),e,82.4280,13.5733,193.4475,24014,0.0000003,0.99992902,0.0000,12/01.7909/2020,2000,g  7.5,4.0
# From MPEC 2020-AA5
A/2019 O2,e,93.2868,48.3134,129.6856,57.35745,0.0022689,0.83122001,358.2345,02/19.0/2021,2000,g  9.5,2.0
# From MPC xxxxx
C/2019 O3 (Palomar),h,03/07.9116/2021,89.8151,300.3807,60.0462,1.002211,8.819471,2000,3.5,4.0
# From MPC117072
A/2019 O4,e,115.0868,354.9166,61.8331,32.86625,0.0052309,0.88909715,1.9613,02/19.0/2021,2000,g 15.5,2.0
# From MPC xxxxx
C/2019 Q1 (Lemmon),h,07/20.1323/2020,155.7258,42.3768,56.0106,1.001591,4.997564,2000,8.5,4.0
# From MPC117072
A/2019 Q2,e,159.0206,188.0390,176.2951,57.22547,0.0022768,0.97803560,0.0000,07/22.2721/2019,2000,g 18.0,2.0
# From MPC117072
C/2019 Q3 (PANSTARRS),h,08/21.3833/2018,65.5266,151.3235,152.6901,1.004042,7.253957,2000,8.5,4.0
# From MPC117072
P/2019 S2 (PANSTARRS),e,10.4728,93.1306,216.8799,4.736536,0.0956121,0.20677323,69.6362,02/19.0/2021,2000,g 13.5,4.0
# From MPC118096
P/2019 S3 (PANSTARRS),e,8.6939,150.1601,212.9821,3.414784,0.1561922,0.47095281,84.7768,02/19.0/2021,2000,g 18.3,4.0
# From MPC xxxxx
C/2019 S4 (Lemmon),e,92.0259,63.1645,71.3636,235.3614,0.0002730,0.98537581,0.0000,04/07.9575/2020,2000,g 11.0,4.0
# From MPC118843
A/2019 T1,e,120.8697,6.9537,91.0338,38.25297,0.0041659,0.88807159,0.1488,02/19.0/2021,2000,g 13.0,2.0
# From MPC xxxxx
C/2019 T2 (Lemmon),e,111.4879,155.6414,239.3821,2274,0.0000091,0.99883666,0.0000,04/22.2626/2021,2000,g  9.0,4.0
# From MPC119998
C/2019 T3 (ATLAS),e,121.8623,139.5209,112.2787,3942,0.0000040,0.99849144,0.0000,03/02.6961/2021,2000,g  6.8,4.0
# From MPC119998
C/2019 T4 (ATLAS),e,53.6189,199.9539,351.2159,995.5791,0.0000314,0.99573888,0.0000,06/09.3708/2022,2000,g  5.0,4.0
# From MPC119998
P/2019 T5 (ATLAS),e,33.4281,247.6837,189.5910,8.006961,0.0435013,0.80917096,24.7038,02/19.0/2021,2000,g 15.0,4.0
# From MPC119998
P/2019 T6 (PANSTARRS),e,18.6947,71.3002,328.9063,5.434247,0.0778028,0.62250840,36.5058,02/19.0/2021,2000,g 15.5,4.0
# From MPC118096
P/2019 U4 (PANSTARRS),e,11.6919,200.0193,180.9691,3.520507,0.1492094,0.47549366,77.5253,02/19.0/2021,2000,g 19.0,4.0
# From MPC118844
A/2019 U5,h,03/30.1719/2023,113.5250,2.6781,181.5900,1.000897,3.621284,2000,10.0,2.0
# From MPEC 2020-AA5
C/2019 U6,e,60.9996,235.6992,329.6598,416.2080,0.0001161,0.99780342,0.0000,06/18.8127/2020,2000,g 14.5,2.0
# From MPC119998
C/2019 V1 (Borisov),e,61.8625,83.2011,51.1914,1908,0.0000118,0.99837659,0.0000,07/16.5279/2020,2000,g 11.0,4.0
# From MPC119998
P/2019 V2 (Groeller),e,11.8058,189.1604,336.3385,7.511561,0.0478750,0.33215807,5.7116,02/19.0/2021,2000,g 10.0,4.0
# From MPC119998
P/2019 W1 (PANSTARRS),e,23.4612,35.4008,18.7025,4.550268,0.1015427,0.26628571,66.3328,02/19.0/2021,2000,g 12.9,4.0
# From MPC119998
P/2019 X1 (Pruyne),e,10.2447,43.6991,36.5881,6.177208,0.0641972,0.30350785,37.2569,02/19.0/2021,2000,g 10.4,4.0
# From MPC119999
C/2019 Y1 (ATLAS),e,73.2609,31.5191,57.9718,85.89361,0.0012381,0.99031906,0.0000,03/15.5869/2020,2000,g 13.7,4.0
# From MPEC 2020-K19
P/2019 Y2 (Fuls),e,4.8950,80.8357,92.4331,3.456607,0.1533660,0.38492993,58.8873,02/19.0/2021,2000,g 13.2,4.0
# From MPEC 2020-L06
